OBJECT_NAME,OBJECT_ID,EPOCH,MEAN_MOTION,ECCENTRICITY,INCLINATION,RA_OF_ASC_NODE,ARG_OF_PERICENTER,MEAN_ANOMALY,EPHEMERIS_TYPE,CLASSIFICATION_TYPE,NORAD_CAT_ID,ELEMENT_SET_NO,REV_AT_EPOCH,BSTAR,MEAN_MOTION_DOT,MEAN_MOTION_DDOT
OPS 6582 (TRANSIT 5B-5),1964-083D,2026-06-11T15:32:58.585056,13.57012344,.0039624,90.0764,202.9957,295.3039,178.4194,0,U,965,999,4286,.90121E-4,.73E-6,0
LES-1,1965-008C,2026-06-10T23:16:01.528896,9.88354966,.00156089,32.1459,59.4327,248.1035,111.7802,0,U,1002,999,21557,-.14883543E-2,-.3E-7,0
SOLRAD 7B,1965-016D,2026-06-11T15:53:05.758080,13.94975042,.0019084,70.0792,248.0102,133.3011,226.9690,0,U,1291,999,11593,.41235E-4,.3E-7,0
SECOR 4 (EGRS 4),1965-027B,2026-06-11T01:50:04.471296,12.92667535,.0030088,90.2497,15.4402,213.7513,269.1345,0,U,1315,999,88613,.25239E-3,.76E-6,0
TIROS 10,1965-051A,2026-06-11T13:26:31.623936,14.41629063,.0056468,98.5032,281.9156,95.9032,264.8597,0,U,1430,999,19510,.54434E-4,.136E-5,0
ALOUETTE 2,1965-098A,2026-06-11T18:54:55.951776,12.28338904,.1329699,79.8013,281.2486,243.4863,102.3990,0,U,1804,999,67861,.13614E-3,.409E-5,0
OV3-3,1966-070A,2026-06-11T20:34:48.457056,13.45206351,.1012569,81.3247,335.7145,171.4917,190.4966,0,U,2389,999,59825,.77133E-3,.17243E-3,0
SECOR 7 (EGRS 7),1966-077B,2026-05-31T19:23:56.009760,8.59615314,.0011654,90.3353,277.2466,75.1080,285.1061,0,U,2411,999,87597,-.94660848E-2,-.17E-6,0
ERS 15,1966-077C,2026-05-30T06:48:48.924576,8.59079282,.00073123,90.3351,277.0217,86.0359,274.1328,0,U,2412,999,38892,0,.2E-7,0
ISIS 1,1969-009A,2026-06-11T04:09:00.742464,11.30433155,.17060649,88.4423,145.0606,260.3817,80.1256,0,U,3669,999,35909,.44833056E-4,.6E-6,0
SECOR 13 (EGRS 13),1969-037B,2026-06-11T15:46:34.069728,13.42976814,.0038669,99.6495,34.3842,264.9625,162.5621,0,U,3891,999,80101,.32458E-4,-.24E-6,0
ATS 5,1969-069A,2026-06-11T15:17:38.524416,0.99497541,.0005232,0.2496,154.9223,124.5664,6.9543,0,U,4068,999,4627,0,-.243E-5,0
OPS 7613 (P/L 4),1969-082E,2026-06-11T14:26:18.955392,13.95995601,.0018802,70.0141,115.8227,143.5694,31.6042,0,U,4237,999,88552,.55715E-4,.24E-6,0
OPS 7613 (P/L 1),1969-082B,2026-06-11T19:16:49.429632,13.99196239,.0017223,70.0103,336.5806,69.8366,290.4592,0,U,4256,999,88971,.85242E-4,.71E-6,0
SHINSEI (MS-F2),1971-080A,2026-06-11T14:30:56.134368,12.74252020,.0639595,32.0529,127.2841,2.1583,358.1575,0,U,5485,999,54854,.64297E-4,.48E-6,0
PROSPERO (BLACK ARROW),1971-093A,2026-06-11T19:14:34.059840,14.01597153,.0500201,82.0386,295.5567,242.5149,112.4337,0,U,5580,999,74777,.21835E-3,.1024E-4,0
OPS 7898 (P/L 2),1971-110C,2026-06-11T20:36:52.504128,13.74758366,.0008124,69.9904,13.9167,194.2859,165.8007,0,U,5680,999,34748,.45323E-4,-.7E-7,0
NOAA 2 (ITOS-D),1972-082A,2026-06-11T16:56:38.354208,12.53214812,.0004183,102.0073,181.2175,174.9377,297.9650,0,U,6235,999,45426,.15389E-3,-.22E-6,0
OSCAR 7 (AO-7),1974-089B,2026-06-11T15:38:07.790784,12.53697989,.0012513,101.9901,175.8403,140.4231,346.6371,0,U,7530,999,35982,.11383E-3,-.28E-6,0
TIROS N,1978-096A,2026-06-11T15:21:03.185280,14.19373606,.0009159,98.4530,183.9439,257.0992,102.9162,0,U,11060,999,67796,.65997E-4,.97E-6,0
PHASE 3B (AO-10),1983-058B,2026-06-07T04:08:14.383680,2.05872980,.60142661,25.9048,221.2242,112.9115,319.2048,0,U,14129,999,29528,0,-.194E-5,0
HILAT,1983-063A,2026-06-11T13:08:44.057760,14.38707913,.0038146,82.0231,166.2694,309.2154,171.4664,0,U,14154,999,24677,.10302E-3,.334E-5,0
UOSAT 2 (UO-11),1984-021B,2026-06-11T17:13:11.459136,14.90769946,.0007126,97.8055,128.3534,190.9158,169.1907,0,U,14781,999,25631,.13072E-3,.1229E-4,0
NOAA 9,1984-123A,2026-06-11T16:55:58.953216,14.17066735,.001478,99.0989,189.2162,9.8293,100.0644,0,U,15427,999,14264,.70709E-4,.96E-6,0
GEOSAT,1985-021A,2026-06-11T15:51:57.492576,14.39963802,.0001301,108.0432,69.9485,284.6297,75.4701,0,U,15595,999,16197,.69592E-4,.83E-6,0
EUTELSAT 1-F4 (ECS 4),1987-078B,2026-06-11T06:19:48.038016,0.98691189,.0011158,13.8327,342.1697,43.5202,313.8722,0,U,18351,999,12669,0,-.227E-5,0
PACSAT (AO-16),1990-005D,2026-06-11T16:08:38.167872,14.33934933,.0009552,98.8523,198.2226,245.3327,235.2258,0,U,20439,999,90114,.53737E-4,.103E-5,0
LUSAT (LO-19),1990-005G,2026-06-11T12:44:11.971968,14.34121495,.001082,98.8852,184.1803,218.5501,141.4911,0,U,20442,999,90158,.54261E-4,.105E-5,0
IRS-1B,1991-061A,2026-06-11T16:33:16.566912,13.97874768,.0024891,99.4110,170.4988,20.7297,93.3633,0,U,21688,999,66772,.25615E-3,.317E-5,0
COSMOS 2197,1992-042A,2026-06-11T16:50:04.556832,12.64251949,.0011381,82.5942,232.4385,287.6138,189.6377,0,U,22034,999,56459,.20403E-5,.11E-6,0
PEGASUS R/B,1993-009C,2026-06-11T13:52:48.961344,14.57963508,.0044129,24.9766,125.3122,46.8255,313.5933,0,U,22491,999,76881,.13983E-3,.866E-5,0
EYESAT A (AO-27),1993-061C,2026-06-11T16:27:20.903040,14.30940798,.0009459,98.6880,230.1011,113.9652,246.2522,0,U,22825,999,70621,.45342E-4,.75E-6,0
ITAMSAT (IO-26),1993-061D,2026-06-11T16:00:03.917664,14.31367535,.0010074,98.6828,229.9990,99.3506,260.8816,0,U,22826,999,70652,.45822E-4,.77E-6,0
RADIO ROSTO (RS15),1994-085A,2026-06-11T19:04:16.528800,11.27583609,.0155781,64.8187,311.9375,4.8739,355.3660,0,U,23439,999,29529,-.15052E-3,-.48E-6,0
JAS-2 (FO-29),1996-046B,2026-06-11T13:03:39.141792,13.53273928,.0350827,98.5245,12.1894,111.0367,252.8667,0,U,24278,999,47240,.46335E-4,.14E-6,0
FORTE,1997-047A,2026-06-11T16:49:29.119008,14.27943008,.0024564,69.9541,26.4135,284.0264,75.8127,0,U,24920,999,49790,.74604E-4,.128E-5,0
NOAA 15,1998-030A,2026-06-11T18:53:42.928224,14.27144948,.0010378,98.5066,183.5657,10.4669,349.6726,0,U,25338,999,46052,.66656E-4,.12E-5,0
TECHSAT 1B (GO-32),1998-043D,2026-06-11T14:03:01.522656,14.24427354,.0000734,99.0065,155.2028,176.4907,183.6276,0,U,25397,999,45053,.41012E-4,.48E-6,0
ISS (ZARYA),1998-067A,2026-06-11T20:03:08.872704,15.49179015,.0004934,51.6334,326.5798,175.2433,184.8603,0,U,25544,999,57092,.13937E-3,.7284E-4,0
ORSTED,1999-008B,2026-06-11T17:39:57.024288,14.51803304,.0131187,96.4830,71.4895,203.4674,156.0506,0,U,25635,999,44117,.80692E-4,.33E-5,0
LANDSAT 7,1999-020A,2026-06-11T18:48:32.065344,14.63912269,.0001816,97.8579,166.6669,92.9554,11.4002,0,U,25682,999,44505,.75429E-4,.35E-5,0
ORBCOMM FM36,1999-065E,2026-06-11T08:19:48.122400,14.39185999,.0005334,45.0369,187.3114,288.5416,71.4853,0,U,25984,999,38614,.23065E-3,.578E-5,0
DMSP 5D-3 F15 (USA 147),1999-067A,2026-06-11T20:52:37.155072,14.17563060,.0010333,98.9962,201.3581,23.7750,90.5842,0,U,25991,999,36989,.87564E-4,.132E-5,0
OPAL (OO-38),2000-004C,2026-06-11T16:19:53.179104,14.37962597,.0036423,100.1912,98.4875,51.3199,309.1232,0,U,26063,999,38249,.57197E-4,.115E-5,0
IMAGE,2000-017A,2026-06-11T08:17:58.695072,1.68665984,.7436383,94.2241,315.2958,288.4674,8.8959,0,U,26113,999,16140,.22926E-1,.11E-6,0
CLUSTER II-FM7 (SAMBA),2000-041A,2026-06-12T16:15:42.321024,0.44876884,.9050232,149.9129,50.0471,267.1318,359.9673,0,U,26410,999,2029,0,.5012E-4,0
CLUSTER II-FM8 (TANGO),2000-045B,2026-06-10T16:26:23.629344,0.44409835,.9053421,150.1502,50.7513,267.6711,3.1468,0,U,26464,999,2028,0,.4607E-4,0
MEGSAT-1,2000-057B,2026-06-11T11:57:06.139872,15.05465122,.004206,64.5499,87.3434,284.4511,75.1940,0,U,26546,999,39680,.19694E-3,.2711E-4,0
PHASE 3D (AO-40),2000-072B,2026-06-10T05:03:09.703872,1.25588208,.79309333,9.4377,352.0306,176.2854,199.4463,0,U,26609,999,11742,0,-.29E-6,0
ODIN,2001-007A,2026-06-11T15:07:22.233216,15.73954922,.0006672,97.3847,203.2219,150.0809,210.0837,0,U,26702,999,38852,.11182E-2,.161235E-2,0
OMNI-M1,2001-026A,2026-06-11T08:49:49.290240,3.92401520,.0014278,44.8323,246.6059,52.6798,307.5021,0,U,26857,999,20534,0,0,0
PCSAT (NO-44),2001-043C,2026-06-11T15:23:47.847264,14.31954152,.00061,67.0509,258.6152,264.4327,95.6080,0,U,26931,999,28965,.57659E-4,.72E-6,0
PROBA-1,2001-049B,2026-06-11T19:50:08.597760,15.07474528,.0055831,97.9606,171.1711,139.8330,220.7044,0,U,26958,999,34281,.14805E-3,.2255E-4,0
SPOT 5,2002-021A,2026-06-11T16:03:01.593216,14.54747508,.0128295,97.9848,201.7760,293.8878,64.8921,0,U,27421,999,26204,.55698E-4,.215E-5,0
FENGYUN 1D,2002-024B,2026-06-11T16:26:30.238944,14.10223831,.0014356,98.9519,213.0404,257.5428,102.4136,0,U,27431,999,23870,.8238E-5,-.3E-6,0
SAUDISAT 1C (SO-50),2002-058C,2026-06-11T13:24:05.207040,14.83034770,.0075403,64.5506,146.4007,263.5157,95.7360,0,U,27607,999,26362,.12536E-3,.916E-5,0
CORIOLIS,2003-001A,2026-06-11T15:07:49.950336,14.19943317,.00131,98.7125,169.6001,225.7060,134.3042,0,U,27640,999,21343,.65257E-4,.95E-6,0
CUTE-1 (CO-55),2003-031E,2026-06-11T13:23:16.003104,14.24332340,.0009139,98.6735,171.1873,194.6488,165.4428,0,U,27844,999,19087,.12921E-3,.255E-5,0
CUBESAT XI-IV (CO-57),2003-031J,2026-06-11T13:02:34.842912,14.23617902,.0008681,98.6768,170.8906,214.5229,145.5386,0,U,27848,999,19057,.11637E-3,.221E-5,0
MOZHAETS 4 (RS22),2003-042A,2026-06-11T20:33:54.921888,14.73459418,.0010045,98.3473,347.0658,288.8379,182.7006,0,U,27939,999,21476,.18781E-3,.1166E-4,0
IRS-P6 (RESOURCESAT-1),2003-046A,2026-06-11T20:55:25.554720,14.36159980,.0064225,98.1913,199.6456,359.4427,104.6706,0,U,28051,999,17976,.10962E-4,-.8E-7,0
SAUDISAT 2,2004-025F,2026-06-11T14:27:36.691200,14.56680728,.0023822,98.5507,162.4401,316.1423,43.7882,0,U,28371,999,16493,.64135E-4,.237E-5,0
COSMOS 2407,2004-028A,2026-06-11T18:13:00.507360,13.76334341,.0037786,82.9609,78.8543,267.7075,153.3587,0,U,28380,999,9913,.23318E-4,.38E-6,0
COSMOS 2414,2005-002A,2026-06-11T16:44:16.940256,13.87926114,.0039876,82.9503,47.7995,347.1330,12.8812,0,U,28521,999,8305,.28042E-4,.49E-6,0
INMARSAT 4-F1,2005-009A,2026-06-11T12:22:50.639232,1.00271602,.0002573,5.1602,42.7431,40.6377,180.3118,0,U,28628,999,7761,0,.46E-6,0
HAMSAT (VO-52),2005-017B,2026-06-11T14:55:06.747168,15.09678250,.0020431,97.9903,185.4551,58.5596,301.7626,0,U,28650,999,14592,.30569E-3,.4877E-4,0
NOAA 18,2005-018A,2026-06-11T19:32:05.885664,14.13728332,.0014636,98.8113,242.5687,162.2601,197.9085,0,U,28654,999,8555,.39929E-4,.32E-6,0
